ONEWEB-0387             
1 49313U 21090AL  24069.45099953  .00000145  00000+0  32404-3 0  9992
2 49313  87.9126  79.6319 0002044 101.7605 258.3758 13.20772669121601
ONEWEB-0388             
1 49314U 21090AM  24069.51722322  .00000054  00000+0  10241-3 0  9997
2 49314  87.9128 110.1303 0002149  93.7059 266.4320 13.19725819118274
ONEWEB-0389             
1 50469U 21132A   24069.52023226  .00000030  00000+0  43629-4 0  9996
2 50469  87.9265 170.9100 0002206 119.1271 241.0081 13.17650718110112
ONEWEB-0390             
1 50470U 21132B   24068.53464359  .00000114  00000+0  26066-3 0  9992
2 50470  87.9264 171.1126 0001633 118.2383 241.8913 13.17651760108691
ONEWEB-0391             
1 50471U 21132C   24068.53622077  .00000064  00000+0  13180-3 0  9993
2 50471  87.9272 171.0868 0002256 116.4086 243.7277 13.17650942108690
ONEWEB-0392             
1 50472U 21132D   24069.32564103  .00000027  00000+0  36643-4 0  9996
2 50472  87.9257 170.9466 0002037 116.6151 243.5190 13.17650150110122
ONEWEB-0393             
1 50473U 21132E   24068.23723256 -.00052482  00000+0 -13376+0 0  9999
2 50473  87.9267 171.1274 0001798 121.1962 238.9347 13.18766951109979
ONEWEB-0394             
1 50474U 21132F   24068.62954225  .00000111  00000+0  24806-3 0  9999
2 50474  87.9205 140.7770 0002131 105.4016 254.7352 13.18687603112132
ONEWEB-0395             
1 50475U 21132G   24068.60076961  .00000020  00000+0  21915-4 0  9998
2 50475  87.9034 186.2320 0001850 116.6664 243.4654 13.11418205106854
ONEWEB-0396             
1 50476U 21132H   24068.47146339  .00000076  00000+0  15933-3 0  9994
2 50476  87.9210 140.8015 0002215 104.7498 255.3880 13.18687667112157
ONEWEB-0397             
1 50477U 21132J   24068.63744560  .00000083  00000+0  17808-3 0  9994
2 50477  87.9212 140.7699 0002260 105.3795 254.7587 13.18686255112153
ONEWEB-0398             
1 50478U 21132K   24069.40758957 -.00002650  00000+0 -75190-2 0  9997
2 50478  87.9027 186.0564 0001528 125.0061 235.1210 13.11391595108135
ONEWEB-0399             
1 50479U 21132L   24068.78258879  .00000463  00000+0  12716-2 0  9999
2 50479  87.9030 186.1948 0002151 101.5868 258.5501 13.11414864106768
ONEWEB-0400             
1 50480U 21132M   24069.14802624  .00000101  00000+0  22247-3 0  9995
2 50480  87.9205 140.6757 0001771 108.1198 252.0128 13.18685858113495
ONEWEB-0401             
1 50481U 21132N   24069.19073613  .00000048  00000+0  87781-4 0  9994
2 50481  87.9204 140.6658 0002213  96.0215 264.1169 13.18692116113508
ONEWEB-0402             
1 50482U 21132P   24069.23180950  .00000063  00000+0  12675-3 0  9999
2 50482  87.9205 140.6547 0001988  85.5601 274.5758 13.18687139113538
ONEWEB-0403             
1 50483U 21132Q   24069.48315255  .00000032  00000+0  48073-4 0  9993
2 50483  87.9207 140.6105 0002277 102.4652 257.6735 13.18683779113520
ONEWEB-0404             
1 50484U 21132R   24069.37510615  .00000261  00000+0  69928-3 0  9994
2 50484  87.9041 186.0421 0002287 115.0978 245.0387 13.11416596108201
ONEWEB-0405             
1 50485U 21132S   24069.19545526  .00000065  00000+0  13110-3 0  9998
2 50485  87.9209 140.6569 0002340  94.2892 265.8507 13.18687692113899
ONEWEB-0406             
1 50486U 21132T   24069.26027456  .00000040  00000+0  68053-4 0  9994
2 50486  87.9210 140.6532 0002197 113.9094 246.2268 13.18685100113535
ONEWEB-0407             
1 50487U 21132U   24069.48156095  .00000035  00000+0  55166-4 0  9996
2 50487  87.9204 140.6158 0002201  99.8317 260.3063 13.18688231113504
ONEWEB-0409             
1 50488U 21132V   24068.76310537  .00000486  00000+0  13368-2 0  9996
2 50488  87.9031 186.1682 0002130 124.6870 235.4458 13.11418586106748
ONEWEB-0412             
1 50489U 21132W   24068.63587030  .00000078  00000+0  16456-3 0  9996
2 50489  87.9211 140.7781 0002436  93.4754 266.6657 13.18684662112198
ONEWEB-0413             
1 50490U 21132X   24069.47525743 -.00002942  00000+0 -74961-2 0  9992
2 50490  87.9207 140.6252 0002299  92.2960 267.8435 13.18698915113532
ONEWEB-0414             
1 50491U 21132Y   24069.46102279  .00000151  00000+0  34964-3 0  9995
2 50491  87.9204 140.6104 0002407 100.1608 259.9795 13.18687675113560
ONEWEB-0417             
1 50492U 21132Z   24069.24129350  .00000063  00000+0  12714-3 0  9992
2 50492  87.9211 140.6499 0002155 111.7711 248.3651 13.18687258113514
ONEWEB-0418             
1 50493U 21132AA  24069.48235676  .00000060  00000+0  12050-3 0  9998
2 50493  87.9207 140.6107 0002346 115.5492 244.5883 13.18687558113592
ONEWEB-0419             
1 50494U 21132AB  24069.19229145  .00000048  00000+0  89308-4 0  9998
2 50494  87.9206 140.6874 0001928 115.3579 244.7753 13.18687633113482
ONEWEB-0420             
1 50495U 21132AC  24069.46260965  .00000105  00000+0  23345-3 0  9996
2 50495  87.9202 140.6422 0001918  92.2104 267.9248 13.18684990113528
ONEWEB-0421             
1 50496U 21132AD  24069.45628399  .00000154  00000+0  35692-3 0  9997
2 50496  87.9212 140.6015 0002441  96.6193 263.5217 13.18687652113566
ONEWEB-0424             
1 50497U 21132AE  24069.49105563  .00000047  00000+0  86989-4 0  9992
2 50497  87.9208 140.6057 0001613 117.8169 242.3126 13.18687900113578
ONEWEB-0426             
1 50498U 21132AF  24069.45312187  .00000114  00000+0  25590-3 0  9996
2 50498  87.9202 140.6341 0002658 110.2135 249.9283 13.18687900113521
ONEWEB-0427             
1 50499U 21132AG  24069.26183527  .00000055  00000+0  10674-3 0  9991
2 50499  87.9206 140.6485 0002153 109.8764 250.2601 13.18688366113534
ONEWEB-0429             
1 50500U 21132AH  24069.47683225 -.00000109  00000+0 -30985-3 0  9996
2 50500  87.9210 140.6056 0001964 100.9878 259.1476 13.18685213113528
ONEWEB-0430             
1 50501U 21132AJ  24068.63112073  .00000082  00000+0  17575-3 0  9990
2 50501  87.9208 140.7811 0001477 104.9920 255.1376 13.18687782112164
ONEWEB-0432             
1 50502U 21132AK  24069.19386511  .00000074  00000+0  15440-3 0  9993
2 50502  87.9206 140.6638 0001877 102.4958 257.6384 13.18687761113497
ONEWEB-0440             
1 50503U 21132AL  24069.18123501  .00000087  00000+0  18811-3 0  9990
2 50503  87.9209 140.6519 0002399  90.3480 269.7927 13.18687804113477
ONEWEB-0450             
1 50504U 21132AM  24069.17490480  .00000070  00000+0  14432-3 0  9990
2 50504  87.9209 140.6814 0001729  92.0316 268.1014 13.18687350113509
ONEWEB-0410             
1 51622U 22012A   24069.53921579  .00000059  00000+0  11999-3 0  9990
2 51622  87.9260 170.8923 0003002 117.8683 242.2753 13.17651013105738
ONEWEB-0411             
1 51623U 22012B   24068.77807230 -.00000763  00000+0 -22216-2 0  9990
2 51623  87.8971 201.2292 0001455 112.8976 247.2305 13.10372324100534
ONEWEB-0415             
1 51624U 22012C   24068.62213195 -.00000579  00000+0 -16938-2 0  9995
2 51624  87.8965 201.2866 0001413 116.9483 243.1789 13.10370522100514
ONEWEB-0416             
1 51625U 22012D   24068.78620558 -.00000457  00000+0 -13440-2 0  9998
2 51625  87.8973 201.2430 0001718 105.8754 254.2563 13.10376765100571
ONEWEB-0422             
1 51626U 22012E   24068.56153027  .00000096  00000+0  21431-3 0  9994
2 51626  87.9263 171.0829 0001778  82.0106 278.1227 13.17650768104429
ONEWEB-0423             
1 51627U 22012F   24068.55519994 -.00000193  00000+0 -53095-3 0  9994
2 51627  87.9264 171.0836 0001954 104.3870 255.7479 13.17648713105609
ONEWEB-0425             
1 51628U 22012G   24068.79596128  .00000009  00000+0 -97548-5 0  9993
2 51628  87.8972 201.2280 0002160 103.0241 257.1128 13.10377366100576
ONEWEB-0428             
1 51629U 22012H   24068.62373732 -.00000657  00000+0 -19181-2 0  9994
2 51629  87.8971 201.2762 0001413  94.3504 265.7784 13.10372905100516
ONEWEB-0431             
1 51630U 22012J   24068.59275559  .00000595  00000+0  16670-2 0  9999
2 51630  87.8962 201.2855 0000953 111.4888 248.6341 13.10372211100569
ONEWEB-0434             
1 51631U 22012K   24068.79920385  .00000160  00000+0  42122-3 0  9996
2 51631  87.8976 201.2527 0001670  96.0381 264.0937 13.10378497100570
ONEWEB-0435             
1 51632U 22012L   24068.80733792  .00000566  00000+0  15853-2 0  9993
2 51632  87.8975 201.2414 0001502  89.0601 271.0698 13.10376568100564
ONEWEB-0436             
1 51633U 22012M   24068.54729764  .00000053  00000+0  10395-3 0  9997
2 51633  87.9260 171.0940 0001812  98.1665 261.9672 13.17651185105581
ONEWEB-0438             
1 51634U 22012N   24068.79107754 -.00000210  00000+0 -63651-3 0  9994
2 51634  87.8975 201.2454 0002017 105.4873 254.6477 13.10377399100594
ONEWEB-0439             
1 51635U 22012P   24068.79433030 -.00000095  00000+0 -30761-3 0  9991
2 51635  87.8977 201.2287 0001617 104.8968 255.2338 13.10378072100574
ONEWEB-0442             
1 51636U 22012Q   24068.53858906  .00000045  00000+0  81532-4 0  9993
2 51636  87.9263 171.1269 0002401 124.3162 235.8197 13.17652711105578
ONEWEB-0443             
1 51637U 22012R   24068.55837367  .00000078  00000+0  16891-3 0  9995
2 51637  87.9264 171.1292 0002044  91.7427 268.3938 13.17650698105622
ONEWEB-0444             
1 51638U 22012S   24068.78457640 -.00000622  00000+0 -18171-2 0  9992
2 51638  87.8969 201.2578 0001695  97.2573 262.8747 13.10374735100585
ONEWEB-0445             
1 51639U 22012T   24068.80572044  .00000498  00000+0  13895-2 0  9999
2 51639  87.8965 201.2300 0001724 115.7631 244.3674 13.10376135100590
ONEWEB-0446             
1 51640U 22012U   24068.78297957 -.00000514  00000+0 -15103-2 0  9990
2 51640  87.8973 201.2499 0001487 117.1846 242.9433 13.10364155100574
ONEWEB-0448             
1 51641U 22012V   24068.63511052 -.00000496  00000+0 -14560-2 0  9995
2 51641  87.8973 201.2801 0001764  98.1661 261.9667 13.10375448100525
ONEWEB-0449             
1 51642U 22012W   24068.63998720 -.00000151  00000+0 -46875-3 0  9990
2 51642  87.8970 201.2800 0001947 106.8624 253.2717 13.10378154100539
